[{"OBJECT_NAME":"STARLINK-2704","OBJECT_ID":"2021-044F","EPOCH":"2026-03-09T09:27:41.169600","MEAN_MOTION":15.30192842,"ECCENTRICITY":0.00013596,"INCLINATION":53.1594,"RA_OF_ASC_NODE":115.2316,"ARG_OF_PERICENTER":88.4412,"MEAN_ANOMALY":271.6745,"EPHEMERIS_TYPE":0,"CLASSIFICATION_TYPE":"U","NORAD_CAT_ID":48643,"ELEMENT_SET_NO":999,"REV_AT_EPOCH":26378,"BSTAR":-1.478891e-6,"MEAN_MOTION_DOT":-4.03e-6,"MEAN_MOTION_DDOT":0},{"OBJECT_NAME":"KUIPER-00175","OBJECT_ID":"2025-301C","EPOCH":"2026-03-09T23:30:37.840032","MEAN_MOTION":15.30996371,"ECCENTRICITY":0.00022792,"INCLINATION":51.8781,"RA_OF_ASC_NODE":63.6978,"ARG_OF_PERICENTER":50.5695,"MEAN_ANOMALY":309.549,"EPHEMERIS_TYPE":0,"CLASSIFICATION_TYPE":"U","NORAD_CAT_ID":67135,"ELEMENT_SET_NO":999,"REV_AT_EPOCH":1385,"BSTAR":0.00066732304,"MEAN_MOTION_DOT":0.00019968,"MEAN_MOTION_DDOT":0}]
